[Satellite]
VERSION=1.1
NAME=IRIDIUM 22 [-]
NICKNAME=IRIDIUM 22 [-]
TLE1=1 24907U 97043E   18020.86911604  .00000093  00000-0  26000-4 0  9995
TLE2=2 24907  86.3996 165.1610 0002157  93.2300 266.9143 14.34229262 69042
